{"fetched_at":"2026-03-29T16:36:15Z","count":15609,"tles":[{"name":"GEESAT-4 10","line1":"1 65128U 25170K   26086.86041618  .00001141  00000+0  14178-3 0  9993","line2":"2 65128  49.9734 143.6847 0031911 343.3468  16.6422 14.89835999 34990","category":"Other"}]}